start=new Date('2022-06-23T00:00:00.000Z').valueOf();
sats=[{"ECCENTRICITY":"0.00016050","FILE":"3499789","CLASSIFICATION_TYPE":"U","INCLINATION":"53.0561","PERIOD":"95.592","OBJECT_NAME":"STARLINK-2737","RCS_SIZE":"MEDIUM","MEAN_MOTION":"15.06398769","CENTER_NAME":"EARTH","LAUNCH_DATE":"2021-05-26","ARG_OF_PERICENTER":"67.4438","BSTAR":"0.00001173800000","RA_OF_ASC_NODE":"79.8904","MEAN_ANOMALY":"292.6721","ELEMENT_SET_NO":"999","REF_FRAME":"TEME","MEAN_ELEMENT_THEORY":"SGP4","EPOCH":"2022-06-22T11:30:46.702944","COUNTRY_CODE":"US","PERIAPSIS":"546.106","APOAPSIS":"548.329","MEAN_MOTION_DOT":"-0.00000107","EPHEMERIS_TYPE":"0","GP_ID":"206619043","TIME_SYSTEM":"UTC","TLE_LINE1":"1 48675U 21044AP  22173.47970721 -.00000107  00000-0  11738-4 0  9996","TLE_LINE2":"2 48675  53.0561  79.8904 0001605  67.4438 292.6721 15.06398769 59437","NORAD_CAT_ID":"48675","OBJECT_TYPE":"PAYLOAD","MEAN_MOTION_DDOT":"0.0000000000000","SITE":"AFETR","SEMIMAJOR_AXIS":"6925.352","DECAY_DATE":null,"OBJECT_ID":"2021-044AP","REV_AT_EPOCH":"5943"},{"TIME_SYSTEM":"UTC","GP_ID":"206648424","EPHEMERIS_TYPE":"0","TLE_LINE2":"2 48676  53.0552  78.1141 0001462  61.6922 298.4214 15.06395616 59493","TLE_LINE1":"1 48676U 21044AQ  22173.87410362  .00000754  00000-0  69518-4 0  9997","OBJECT_TYPE":"PAYLOAD","NORAD_CAT_ID":"48676","MEAN_MOTION_DDOT":"0.0000000000000","SITE":"AFETR","OBJECT_ID":"2021-044AQ","DECAY_DATE":null,"SEMIMAJOR_AXIS":"6925.362","REV_AT_EPOCH":"5949","CLASSIFICATION_TYPE":"U","FILE":"3500001","ECCENTRICITY":"0.00014620","PERIOD":"95.592","INCLINATION":"53.0552","MEAN_MOTION":"15.06395616","CENTER_NAME":"EARTH","RCS_SIZE":"LARGE","OBJECT_NAME":"STARLINK-2746","ARG_OF_PERICENTER":"61.6922","LAUNCH_DATE":"2021-05-26","ELEMENT_SET_NO":"999","REF_FRAME":"TEME","MEAN_ANOMALY":"298.4214","RA_OF_ASC_NODE":"78.1141","BSTAR":"0.00006951800000","COUNTRY_CODE":"US","PERIAPSIS":"546.215","EPOCH":"2022-06-22T20:58:42.552768","MEAN_ELEMENT_THEORY":"SGP4","MEAN_MOTION_DOT":"0.00000754","APOAPSIS":"548.239"},{"LAUNCH_DATE":"2021-05-26","ARG_OF_PERICENTER":"67.6164","RCS_SIZE":"LARGE","OBJECT_NAME":"STARLINK-2719","CENTER_NAME":"EARTH","MEAN_MOTION":"15.06389188","INCLINATION":"53.0568","PERIOD":"95.593","ECCENTRICITY":"0.00015730","FILE":"3499966","CLASSIFICATION_TYPE":"U","APOAPSIS":"548.336","MEAN_MOTION_DOT":"0.00000619","MEAN_ELEMENT_THEORY":"SGP4","EPOCH":"2022-06-22T11:18:48.508992","COUNTRY_CODE":"US","PERIAPSIS":"546.157","RA_OF_ASC_NODE":"79.9147","BSTAR":"0.00006046700000","MEAN_ANOMALY":"292.4991","ELEMENT_SET_NO":"999","REF_FRAME":"TEME","MEAN_MOTION_DDOT":"0.0000000000000","NORAD_CAT_ID":"48677","OBJECT_TYPE":"PAYLOAD","TLE_LINE1":"1 48677U 21044AR  22173.47139478  .00000619  00000-0  60467-4 0  9994","TLE_LINE2":"2 48677  53.0568  79.9147 0001573  67.6164 292.4991 15.06389188 60274","EPHEMERIS_TYPE":"0","GP_ID":"206626247","TIME_SYSTEM":"UTC","REV_AT_EPOCH":"6027","DECAY_DATE":null,"SEMIMAJOR_AXIS":"6925.382","OBJECT_ID":"2021-044AR","SITE":"AFETR"},{"PERIOD":"95.592","INCLINATION":"53.0560","CLASSIFICATION_TYPE":"U","FILE":"3500001","ECCENTRICITY":"0.00016180","ARG_OF_PERICENTER":"61.5010","LAUNCH_DATE":"2021-05-26","MEAN_MOTION":"15.06394980","CENTER_NAME":"EARTH","OBJECT_NAME":"STARLINK-2615","RCS_SIZE":"LARGE","ELEMENT_SET_NO":"999","REF_FRAME":"TEME","MEAN_ANOMALY":"298.6142","RA_OF_ASC_NODE":"78.7449","BSTAR":"0.00004825900000","MEAN_MOTION_DOT":"0.00000437","APOAPSIS":"548.349","COUNTRY_CODE":"US","PERIAPSIS":"546.108","EPOCH":"2022-06-22T17:37:00.875424","MEAN_ELEMENT_THEORY":"SGP4","TLE_LINE2":"2 48678  53.0560  78.7449 0001618  61.5010 298.6142 15.06394980 59474","TLE_LINE1":"1 48678U 21044AS  22173.73403791  .00000437  00000-0  48259-4 0  9999","TIME_SYSTEM":"UTC","GP_ID":"206647424","EPHEMERIS_TYPE":"0","MEAN_MOTION_DDOT":"0.0000000000000","OBJECT_TYPE":"PAYLOAD","NORAD_CAT_ID":"48678","SITE":"AFETR","REV_AT_EPOCH":"5947","OBJECT_ID":"2021-044AS","DECAY_DATE":null,"SEMIMAJOR_AXIS":"6925.364"},{"OBJECT_ID":"2021-044AT","DECAY_DATE":null,"SEMIMAJOR_AXIS":"6925.376","REV_AT_EPOCH":"5943","SITE":"AFETR","OBJECT_TYPE":"PAYLOAD","NORAD_CAT_ID":"48679","MEAN_MOTION_DDOT":"0.0000000000000","TIME_SYSTEM":"UTC","GP_ID":"206619544","EPHEMERIS_TYPE":"0","TLE_LINE2":"2 48679  53.0564  79.9600 0001706  72.9198 287.1978 15.06391045 59437","TLE_LINE1":"1 48679U 21044AT  22173.46497165  .00001491  00000-0  11903-3 0  9994","COUNTRY_CODE":"US","PERIAPSIS":"546.060","EPOCH":"2022-06-22T11:09:33.550560","MEAN_ELEMENT_THEORY":"SGP4","MEAN_MOTION_DOT":"0.00001491","APOAPSIS":"548.422","REF_FRAME":"TEME","ELEMENT_SET_NO":"999","MEAN_ANOMALY":"287.1978","BSTAR":"0.00011903000000","RA_OF_ASC_NODE":"79.9600","MEAN_MOTION":"15.06391045","CENTER_NAME":"EARTH","OBJECT_NAME":"STARLINK-2648","RCS_SIZE":"LARGE","ARG_OF_PERICENTER":"72.9198","LAUNCH_DATE":"2021-05-26","FILE":"3499789","CLASSIFICATION_TYPE":"U","ECCENTRICITY":"0.00017060","PERIOD":"95.593","INCLINATION":"53.0564"},{"MEAN_MOTION_DOT":"0.00001365","APOAPSIS":"548.542","COUNTRY_CODE":"US","PERIAPSIS":"545.941","EPOCH":"2022-06-22T11:04:14.710368","MEAN_ELEMENT_THEORY":"SGP4","ELEMENT_SET_NO":"999","REF_FRAME":"TEME","MEAN_ANOMALY":"303.2053","RA_OF_ASC_NODE":"79.9790","BSTAR":"0.00011058000000","ARG_OF_PERICENTER":"56.9116","LAUNCH_DATE":"2021-05-26","CENTER_NAME":"EARTH","MEAN_MOTION":"15.06390799","OBJECT_NAME":"STARLINK-2649","RCS_SIZE":"LARGE","PERIOD":"95.593","INCLINATION":"53.0549","FILE":"3499617","CLASSIFICATION_TYPE":"U","ECCENTRICITY":"0.00018780","REV_AT_EPOCH":"6033","OBJECT_ID":"2021-044AU","SEMIMAJOR_AXIS":"6925.377","DECAY_DATE":null,"SITE":"AFETR","MEAN_MOTION_DDOT":"0.0000000000000","OBJECT_TYPE":"PAYLOAD","NORAD_CAT_ID":"48680","TLE_LINE2":"2 48680  53.0549  79.9790 0001878  56.9116 303.2053 15.06390799 60334","TLE_LINE1":"1 48680U 21044AU  22173.46128137  .00001365  00000-0  11058-3 0  9997","TIME_SYSTEM":"UTC","EPHEMERIS_TYPE":"0","GP_ID":"206593488"},{"PERIOD":"95.592","INCLINATION":"53.0568","CLASSIFICATION_TYPE":"U","FILE":"3500001","ECCENTRICITY":"0.00014660","ARG_OF_PERICENTER":"75.3627","LAUNCH_DATE":"2021-05-26","CENTER_NAME":"EARTH","MEAN_MOTION":"15.06404398","RCS_SIZE":"LARGE","OBJECT_NAME":"STARLINK-2725","REF_FRAME":"TEME","ELEMENT_SET_NO":"999","MEAN_ANOMALY":"284.7524","RA_OF_ASC_NODE":"48.1155","BSTAR":"0.00011354000000","MEAN_MOTION_DOT":"0.00001410","APOAPSIS":"548.215","PERIAPSIS":"546.185","COUNTRY_CODE":"US","EPOCH":"2022-06-22T22:11:43.437120","MEAN_ELEMENT_THEORY":"SGP4","TLE_LINE2":"2 48681  53.0568  48.1155 0001466  75.3627 284.7524 15.06404398 59913","TLE_LINE1":"1 48681U 21044AV  22173.92480830  .00001410  00000-0  11354-3 0  9990","TIME_SYSTEM":"UTC","GP_ID":"206648675","EPHEMERIS_TYPE":"0","MEAN_MOTION_DDOT":"0.0000000000000","OBJECT_TYPE":"PAYLOAD","NORAD_CAT_ID":"48681","SITE":"AFETR","REV_AT_EPOCH":"5991","OBJECT_ID":"2021-044AV","SEMIMAJOR_AXIS":"6925.335","DECAY_DATE":null},{"BSTAR":"0.00013351000000","RA_OF_ASC_NODE":"38.0883","REF_FRAME":"TEME","ELEMENT_SET_NO":"999","MEAN_ANOMALY":"275.9834","APOAPSIS":"548.524","MEAN_MOTION_DOT":"0.00001707","MEAN_ELEMENT_THEORY":"SGP4","PERIAPSIS":"545.952","COUNTRY_CODE":"US","EPOCH":"2022-06-22T22:00:00.999936","PERIOD":"95.593","INCLINATION":"53.0573","ECCENTRICITY":"0.00018570","FILE":"3500001","CLASSIFICATION_TYPE":"U","LAUNCH_DATE":"2021-05-26","ARG_OF_PERICENTER":"55.0628","OBJECT_NAME":"STARLINK-2743","RCS_SIZE":"LARGE","MEAN_MOTION":"15.06391900","CENTER_NAME":"EARTH","SITE":"AFETR","REV_AT_EPOCH":"130","DECAY_DATE":null,"SEMIMAJOR_AXIS":"6925.373","OBJECT_ID":"2021-044AW","TLE_LINE1":"1 48682U 21044AW  22173.91667824  .00001707  00000-0  13351-3 0  9998","TLE_LINE2":"2 48682  53.0573  38.0883 0001857  55.0628 275.9834 15.06391900  1306","GP_ID":"206647924","EPHEMERIS_TYPE":"0","TIME_SYSTEM":"UTC","MEAN_MOTION_DDOT":"0.0000000000000","NORAD_CAT_ID":"48682","OBJECT_TYPE":"PAYLOAD"},{"PERIOD":"95.592","INCLINATION":"53.0551","ECCENTRICITY":"0.00016350","FILE":"3500001","CLASSIFICATION_TYPE":"U","LAUNCH_DATE":"2021-05-26","ARG_OF_PERICENTER":"69.8235","RCS_SIZE":"LARGE","OBJECT_NAME":"STARLINK-2756","MEAN_MOTION":"15.06398336","CENTER_NAME":"EARTH","BSTAR":"0.00001187400000","RA_OF_ASC_NODE":"38.1124","REF_FRAME":"TEME","ELEMENT_SET_NO":"999","MEAN_ANOMALY":"290.2930","APOAPSIS":"548.351","MEAN_MOTION_DOT":"-0.00000105","MEAN_ELEMENT_THEORY":"SGP4","COUNTRY_CODE":"US","PERIAPSIS":"546.086","EPOCH":"2022-06-22T21:04:01.071552","TLE_LINE1":"1 48683U 21044AX  22173.87779018 -.00000105  00000-0  11874-4 0  9994","TLE_LINE2":"2 48683  53.0551  38.1124 0001635  69.8235 290.2930 15.06398336 60057","EPHEMERIS_TYPE":"0","GP_ID":"206648174","TIME_SYSTEM":"UTC","MEAN_MOTION_DDOT":"0.0000000000000","NORAD_CAT_ID":"48683","OBJECT_TYPE":"PAYLOAD","SITE":"AFETR","REV_AT_EPOCH":"6005","DECAY_DATE":null,"SEMIMAJOR_AXIS":"6925.354","OBJECT_ID":"2021-044AX"},{"EPHEMERIS_TYPE":"0","GP_ID":"206619281","TIME_SYSTEM":"UTC","TLE_LINE1":"1 48684U 21044AY  22173.36962544 -.00002348  00000-0 -13874-3 0  9990","TLE_LINE2":"2 48684  53.0554  55.7340 0001462  68.9280 291.1865 15.06416625 59769","NORAD_CAT_ID":"48684","OBJECT_TYPE":"PAYLOAD","MEAN_MOTION_DDOT":"0.0000000000000","SITE":"AFETR","SEMIMAJOR_AXIS":"6925.298","DECAY_DATE":null,"OBJECT_ID":"2021-044AY","REV_AT_EPOCH":"5976","ECCENTRICITY":"0.00014620","CLASSIFICATION_TYPE":"U","FILE":"3499789","INCLINATION":"53.0554","PERIOD":"95.591","RCS_SIZE":"LARGE","OBJECT_NAME":"STARLINK-2741","CENTER_NAME":"EARTH","MEAN_MOTION":"15.06416625","LAUNCH_DATE":"2021-05-26","ARG_OF_PERICENTER":"68.9280","BSTAR":"-0.00013874000000","RA_OF_ASC_NODE":"55.7340","MEAN_ANOMALY":"291.1865","REF_FRAME":"TEME","ELEMENT_SET_NO":"999","MEAN_ELEMENT_THEORY":"SGP4","EPOCH":"2022-06-22T08:52:15.638016","COUNTRY_CODE":"US","PERIAPSIS":"546.150","APOAPSIS":"548.175","MEAN_MOTION_DOT":"-0.00002348"}];
